CCSDS_OMM_VERS = 2.0
CREATION_DATE  = 
ORIGINATOR     = 

OBJECT_NAME    = ARIANE 5 R/B
OBJECT_ID      = 2004-049H
CENTER_NAME    = EARTH
REF_FRAME      = TEME
TIME_SYSTEM    = UTC
MEAN_ELEMENT_THEORY = SGP/SGP4

EPOCH          = 2025-11-12T11:10:10.198848
MEAN_MOTION    = 14.84920337
ECCENTRICITY   = .0084982
INCLINATION    = 98.2514
RA_OF_ASC_NODE = 115.6663
ARG_OF_PERICENTER = 11.8290
MEAN_ANOMALY   = 348.4893

EPHEMERIS_TYPE = 0
CLASSIFICATION_TYPE = U
NORAD_CAT_ID   = 28499
ELEMENT_SET_NO = 999
REV_AT_EPOCH   = 12839
BSTAR          = .22101829E-3
MEAN_MOTION_DOT = .1942E-4
MEAN_MOTION_DDOT = 0

CCSDS_OMM_VERS = 2.0
CREATION_DATE  = 
ORIGINATOR     = 

OBJECT_NAME    = CZ-2D R/B
OBJECT_ID      = 2005-024B
CENTER_NAME    = EARTH
REF_FRAME      = TEME
TIME_SYSTEM    = UTC
MEAN_ELEMENT_THEORY = SGP/SGP4

EPOCH          = 2025-11-12T17:51:40.656384
MEAN_MOTION    = 15.51194006
ECCENTRICITY   = .00082238
INCLINATION    = 97.3667
RA_OF_ASC_NODE = 323.4467
ARG_OF_PERICENTER = 89.6096
MEAN_ANOMALY   = 270.6099

EPHEMERIS_TYPE = 0
CLASSIFICATION_TYPE = U
NORAD_CAT_ID   = 28738
ELEMENT_SET_NO = 999
REV_AT_EPOCH   = 12160
BSTAR          = .96597193E-3
MEAN_MOTION_DOT = .56765E-3
MEAN_MOTION_DDOT = 0

CCSDS_OMM_VERS = 2.0
CREATION_DATE  = 
ORIGINATOR     = 

OBJECT_NAME    = ALOS (DAICHI)
OBJECT_ID      = 2006-002A
CENTER_NAME    = EARTH
REF_FRAME      = TEME
TIME_SYSTEM    = UTC
MEAN_ELEMENT_THEORY = SGP/SGP4

EPOCH          = 2025-11-12T20:52:33.143520
MEAN_MOTION    = 14.69343562
ECCENTRICITY   = .00010681
INCLINATION    = 98.1041
RA_OF_ASC_NODE = 268.5785
ARG_OF_PERICENTER = 52.7498
MEAN_ANOMALY   = 307.3805

EPHEMERIS_TYPE = 0
CLASSIFICATION_TYPE = U
NORAD_CAT_ID   = 28931
ELEMENT_SET_NO = 999
REV_AT_EPOCH   = 5632
BSTAR          = .73467267E-3
MEAN_MOTION_DOT = .4293E-4
MEAN_MOTION_DDOT = 0

CCSDS_OMM_VERS = 2.0
CREATION_DATE  = 
ORIGINATOR     = 

OBJECT_NAME    = H-2A R/B
OBJECT_ID      = 2006-002B
CENTER_NAME    = EARTH
REF_FRAME      = TEME
TIME_SYSTEM    = UTC
MEAN_ELEMENT_THEORY = SGP/SGP4

EPOCH          = 2025-11-12T20:22:03.259776
MEAN_MOTION    = 15.13740321
ECCENTRICITY   = .00546418
INCLINATION    = 98.2300
RA_OF_ASC_NODE = 89.1802
ARG_OF_PERICENTER = 278.6277
MEAN_ANOMALY   = 80.8764

EPHEMERIS_TYPE = 0
CLASSIFICATION_TYPE = U
NORAD_CAT_ID   = 28932
ELEMENT_SET_NO = 999
REV_AT_EPOCH   = 7674
BSTAR          = .11077324E-2
MEAN_MOTION_DOT = .20678E-3
MEAN_MOTION_DDOT = 0

CCSDS_OMM_VERS = 2.0
CREATION_DATE  = 
ORIGINATOR     = 

OBJECT_NAME    = RESURS-DK 1
OBJECT_ID      = 2006-021A
CENTER_NAME    = EARTH
REF_FRAME      = TEME
TIME_SYSTEM    = UTC
MEAN_ELEMENT_THEORY = SGP/SGP4

EPOCH          = 2025-11-12T14:20:31.176384
MEAN_MOTION    = 15.11913635
ECCENTRICITY   = .00072158
INCLINATION    = 69.9324
RA_OF_ASC_NODE = 179.7210
ARG_OF_PERICENTER = 284.0524
MEAN_ANOMALY   = 75.9839

EPHEMERIS_TYPE = 0
CLASSIFICATION_TYPE = U
NORAD_CAT_ID   = 29228
ELEMENT_SET_NO = 999
REV_AT_EPOCH   = 6982
BSTAR          = .31010584E-3
MEAN_MOTION_DOT = .5222E-4
MEAN_MOTION_DDOT = 0

CCSDS_OMM_VERS = 2.0
CREATION_DATE  = 
ORIGINATOR     = 

OBJECT_NAME    = CZ-4B R/B
OBJECT_ID      = 2006-046C
CENTER_NAME    = EARTH
REF_FRAME      = TEME
TIME_SYSTEM    = UTC
MEAN_ELEMENT_THEORY = SGP/SGP4

EPOCH          = 2025-11-12T12:45:59.396544
MEAN_MOTION    = 15.15429822
ECCENTRICITY   = .00332135
INCLINATION    = 97.5784
RA_OF_ASC_NODE = 356.7534
ARG_OF_PERICENTER = 315.1829
MEAN_ANOMALY   = 44.6722

EPHEMERIS_TYPE = 0
CLASSIFICATION_TYPE = U
NORAD_CAT_ID   = 29507
ELEMENT_SET_NO = 999
REV_AT_EPOCH   = 4229
BSTAR          = .60311045E-3
MEAN_MOTION_DOT = .11496E-3
MEAN_MOTION_DDOT = 0

CCSDS_OMM_VERS = 2.0
CREATION_DATE  = 
ORIGINATOR     = 

OBJECT_NAME    = CZ-2C R/B
OBJECT_ID      = 2007-010B
CENTER_NAME    = EARTH
REF_FRAME      = TEME
TIME_SYSTEM    = UTC
MEAN_ELEMENT_THEORY = SGP/SGP4

EPOCH          = 2025-11-12T18:37:45.017472
MEAN_MOTION    = 14.20191197
ECCENTRICITY   = .00578917
INCLINATION    = 98.3960
RA_OF_ASC_NODE = 70.9375
ARG_OF_PERICENTER = 274.2033
MEAN_ANOMALY   = 85.2530

EPHEMERIS_TYPE = 0
CLASSIFICATION_TYPE = U
NORAD_CAT_ID   = 31114
ELEMENT_SET_NO = 999
REV_AT_EPOCH   = 96312
BSTAR          = .16649671E-3
MEAN_MOTION_DOT = .32E-5
MEAN_MOTION_DDOT = 0

CCSDS_OMM_VERS = 2.0
CREATION_DATE  = 
ORIGINATOR     = 

OBJECT_NAME    = COSMO-SKYMED 1
OBJECT_ID      = 2007-023A
CENTER_NAME    = EARTH
REF_FRAME      = TEME
TIME_SYSTEM    = UTC
MEAN_ELEMENT_THEORY = SGP/SGP4

EPOCH          = 2025-11-12T22:46:38.174880
MEAN_MOTION    = 14.95453534
ECCENTRICITY   = .00015173
INCLINATION    = 97.8865
RA_OF_ASC_NODE = 142.1589
ARG_OF_PERICENTER = 83.2957
MEAN_ANOMALY   = 276.8436

EPHEMERIS_TYPE = 0
CLASSIFICATION_TYPE = U
NORAD_CAT_ID   = 31598
ELEMENT_SET_NO = 999
REV_AT_EPOCH   = 99744
BSTAR          = .11264438E-2
MEAN_MOTION_DOT = .12416E-3
MEAN_MOTION_DDOT = 0

CCSDS_OMM_VERS = 2.0
CREATION_DATE  = 
ORIGINATOR     = 

OBJECT_NAME    = COSMOS 2428
OBJECT_ID      = 2007-029A
CENTER_NAME    = EARTH
REF_FRAME      = TEME
TIME_SYSTEM    = UTC
MEAN_ELEMENT_THEORY = SGP/SGP4

EPOCH          = 2025-11-12T18:58:47.778528
MEAN_MOTION    = 14.12888784
ECCENTRICITY   = .00021415
INCLINATION    = 70.9363
RA_OF_ASC_NODE = 88.7548
ARG_OF_PERICENTER = 77.3938
MEAN_ANOMALY   = 282.7423

EPHEMERIS_TYPE = 0
CLASSIFICATION_TYPE = U
NORAD_CAT_ID   = 31792
ELEMENT_SET_NO = 999
REV_AT_EPOCH   = 94758
BSTAR          = -.53776707E-4
MEAN_MOTION_DOT = -.148E-5
MEAN_MOTION_DDOT = 0

CCSDS_OMM_VERS = 2.0
CREATION_DATE  = 
ORIGINATOR     = 

OBJECT_NAME    = SL-16 R/B
OBJECT_ID      = 2007-029B
CENTER_NAME    = EARTH
REF_FRAME      = TEME
TIME_SYSTEM    = UTC
MEAN_ELEMENT_THEORY = SGP/SGP4

EPOCH          = 2025-11-12T13:02:25.630080
MEAN_MOTION    = 14.14808858
ECCENTRICITY   = .00021392
INCLINATION    = 70.9765
RA_OF_ASC_NODE = 58.6293
ARG_OF_PERICENTER = 258.9019
MEAN_ANOMALY   = 112.2352

EPHEMERIS_TYPE = 0
CLASSIFICATION_TYPE = U
NORAD_CAT_ID   = 31793
ELEMENT_SET_NO = 999
REV_AT_EPOCH   = 94880
BSTAR          = .25208007E-3
MEAN_MOTION_DOT = .439E-5
MEAN_MOTION_DDOT = 0

CCSDS_OMM_VERS = 2.0
CREATION_DATE  = 
ORIGINATOR     = 

OBJECT_NAME    = KORONAS-FOTON
OBJECT_ID      = 2009-003A
CENTER_NAME    = EARTH
REF_FRAME      = TEME
TIME_SYSTEM    = UTC
MEAN_ELEMENT_THEORY = SGP/SGP4

EPOCH          = 2025-11-12T11:44:13.741152
MEAN_MOTION    = 15.40223200
ECCENTRICITY   = .00110271
INCLINATION    = 82.4334
RA_OF_ASC_NODE = 37.4223
ARG_OF_PERICENTER = 213.0538
MEAN_ANOMALY   = 147.0020

EPHEMERIS_TYPE = 0
CLASSIFICATION_TYPE = U
NORAD_CAT_ID   = 33504
ELEMENT_SET_NO = 999
REV_AT_EPOCH   = 92768
BSTAR          = .65093833E-3
MEAN_MOTION_DOT = .26293E-3
MEAN_MOTION_DDOT = 0

CCSDS_OMM_VERS = 2.0
CREATION_DATE  = 
ORIGINATOR     = 

OBJECT_NAME    = CZ-2C R/B
OBJECT_ID      = 2011-030B
CENTER_NAME    = EARTH
REF_FRAME      = TEME
TIME_SYSTEM    = UTC
MEAN_ELEMENT_THEORY = SGP/SGP4

EPOCH          = 2025-11-12T17:23:46.802400
MEAN_MOTION    = 14.80741357
ECCENTRICITY   = .00534818
INCLINATION    = 97.8365
RA_OF_ASC_NODE = 271.5075
ARG_OF_PERICENTER = 12.7002
MEAN_ANOMALY   = 35.5844

EPHEMERIS_TYPE = 0
CLASSIFICATION_TYPE = U
NORAD_CAT_ID   = 37731
ELEMENT_SET_NO = 999
REV_AT_EPOCH   = 77278
BSTAR          = .49943314E-3
MEAN_MOTION_DOT = .3887E-4
MEAN_MOTION_DDOT = 0

