ARIANE 5 R/B            
1 28499U 04049H   25316.46539582  .00001942  00000+0  22102-3 0  9993
2 28499  98.2514 115.6663 0084982  11.8290 348.4893 14.84920337128396
CZ-2D R/B               
1 28738U 05024B   25316.74422056  .00056765  00000+0  96597-3 0  9993
2 28738  97.3667 323.4467 0008223  89.6096 270.6099 15.51194006121605
ALOS (DAICHI)           
1 28931U 06002A   25316.86982805  .00004293  00000+0  73467-3 0  9991
2 28931  98.1041 268.5785 0001068  52.7498 307.3805 14.69343562 56324
H-2A R/B                
1 28932U 06002B   25316.84864884  .00020678  00000+0  11077-2 0  9999
2 28932  98.2300  89.1802 0054641 278.6277  80.8764 15.13740321 76749
RESURS-DK 1             
1 29228U 06021A   25316.59758306  .00005222  00000+0  31011-3 0  9991
2 29228  69.9324 179.7210 0007215 284.0524  75.9839 15.11913635 69826
CZ-4B R/B               
1 29507U 06046C   25316.53193746  .00011496  00000+0  60311-3 0  9998
2 29507  97.5784 356.7534 0033213 315.1829  44.6722 15.15429822 42290
CZ-2C R/B               
1 31114U 07010B   25316.77621548  .00000320  00000+0  16650-3 0  9990
2 31114  98.3960  70.9375 0057891 274.2033  85.2530 14.20191197963128
COSMO-SKYMED 1          
1 31598U 07023A   25316.94905295  .00012416  00000+0  11264-2 0  9997
2 31598  97.8865 142.1589 0001517  83.2957 276.8436 14.95453534997441
COSMOS 2428             
1 31792U 07029A   25316.79083077 -.00000148  00000+0 -53777-4 0  9995
2 31792  70.9363  88.7548 0002141  77.3938 282.7423 14.12888784947589
SL-16 R/B               
1 31793U 07029B   25316.54335220  .00000439  00000+0  25208-3 0  9997
2 31793  70.9765  58.6293 0002139 258.9019 112.2352 14.14808858948803
KORONAS-FOTON           
1 33504U 09003A   25316.48904793  .00026293  00000+0  65094-3 0  9996
2 33504  82.4334  37.4223 0011027 213.0538 147.0020 15.40223200927680
CZ-2C R/B               
1 37731U 11030B   25316.72484725  .00003887  00000+0  49943-3 0  9999
2 37731  97.8365 271.5075 0053481  12.7002  35.5844 14.80741357772781
